{
    "links": {
        "self": "http://www.neowsapp.com/rest/v1/neo/3560771?api_key=iIulBulltgU6a56xZRHN4H3l9WmuAYTsLGpBGhQ2"
    },
    "id": "3560771",
    "neo_reference_id": "3560771",
    "name": "(2011 FA23)",
    "designation": "2011 FA23",
    "nasa_jpl_url": "http://ssd.jpl.nasa.gov/sbdb.cgi?sstr=3560771",
    "absolute_magnitude_h": 28.9,
    "estimated_diameter": {
        "kilometers": {
            "estimated_diameter_min": 0.004411182,
            "estimated_diameter_max": 0.0098637028
        },
        "meters": {
            "estimated_diameter_min": 4.411182,
            "estimated_diameter_max": 9.8637028131
        },
        "miles": {
            "estimated_diameter_min": 0.0027409806,
            "estimated_diameter_max": 0.0061290189
        },
        "feet": {
            "estimated_diameter_min": 14.4723823528,
            "estimated_diameter_max": 32.3612307372
        }
    },
    "is_potentially_hazardous_asteroid": false,
    "close_approach_data": [
        {
            "close_approach_date": "2011-04-01",
            "close_approach_date_full": "2011-Apr-01 03:12",
            "epoch_date_close_approach": 1301627520000,
            "relative_velocity": {
                "kilometers_per_second": "14.0774903035",
                "kilometers_per_hour": "50678.9650924373",
                "miles_per_hour": "31489.938059798"
            },
            "miss_distance": {
                "astronomical": "0.0053876527",
                "lunar": "2.0957969003",
                "kilometers": "805981.368219749",
                "miles": "500813.5991765762"
            },
            "orbiting_body": "Earth"
        },
        {
            "close_approach_date": "2011-04-01",
            "close_approach_date_full": "2011-Apr-01 10:09",
            "epoch_date_close_approach": 1301652540000,
            "relative_velocity": {
                "kilometers_per_second": "14.013841962",
                "kilometers_per_hour": "50449.831063169",
                "miles_per_hour": "31347.5630847786"
            },
            "miss_distance": {
                "astronomical": "0.0051636672",
                "lunar": "2.0086665408",
                "kilometers": "772473.614508864",
                "miles": "479992.8464917632"
            },
            "orbiting_body": "Moon"
        }
    ],
    "orbital_data": {
        "orbit_id": "5",
        "orbit_determination_date": "2017-04-06 08:53:58",
        "first_observation_date": "2011-03-30",
        "last_observation_date": "2011-03-31",
        "data_arc_in_days": 1,
        "observations_used": 21,
        "orbit_uncertainty": "8",
        "minimum_orbit_intersection": ".000118367",
        "jupiter_tisserand_invariant": "3.548",
        "epoch_osculation": "2455651.5",
        "eccentricity": ".5912783719681255",
        "semi_major_axis": "2.051970921051754",
        "inclination": "2.16336246432606",
        "ascending_node_longitude": "191.2472402230998",
        "orbital_period": "1073.631462410204",
        "perihelion_distance": ".8386848955263378",
        "perihelion_argument": "55.61227251820136",
        "aphelion_distance": "3.26525694657717",
        "perihelion_time": "2455691.531573999232",
        "mean_anomaly": "346.5769892702554",
        "mean_motion": ".3353105908351765",
        "equinox": "J2000",
        "orbit_class": {
            "orbit_class_type": "APO",
            "orbit_class_description": "Near-Earth asteroid orbits which cross the Earth’s orbit similar to that of 1862 Apollo",
            "orbit_class_range": "a (semi-major axis) > 1.0 AU; q (perihelion) < 1.017 AU"
        }
    },
    "is_sentry_object": false
}